STARLINK-31917          
1 59669U 24084R   26193.64767013  .00000162  00000+0  15402-4 0  9992
2 59669  43.0023  56.1061 0001401 254.6064 105.4633 15.27576248123488
STARLINK-31860          
1 59670U 24084S   26193.64558831  .00012941  00000+0  48013-3 0  9991
2 59670  43.0055  52.6401 0001706 250.6397 109.4270 15.27500099123502
STARLINK-31854          
1 59671U 24084T   26193.86324525  .00001215  00000+0  53685-4 0  9991
2 59671  43.0034  21.8545 0001132 272.9417  87.1305 15.27575869123878
STARLINK-31842          
1 59672U 24084U   26193.65329490 -.00000126  00000+0  49649-5 0  9992
2 59672  43.0059  52.6977 0001365 273.7066  86.3630 15.27576895123528
STARLINK-31871          
1 59673U 24084V   26193.11686318  .00002366  00000+0  95487-4 0  9996
2 59673  43.0024  59.0050 0001767 254.1744 105.8913 15.27583574123406
STARLINK-31875          
1 59674U 24084W   26192.98401598  .00000758  00000+0  37052-4 0  9993
2 59674  42.9994  56.2792 0000857 251.7420 108.3338 15.27569387123423
STARLINK-31877          
1 59675U 24084X   26193.65536514 -.00002772  00000+0 -91231-4 0  9995
2 59675  43.0027  56.1711 0001573 254.1305 105.9373 15.27584999123482
STARLINK-31884          
1 59676U 24084Y   26192.98996415  .00007684  00000+0  28846-3 0  9997
2 59676  42.9993  59.7996 0000776 336.0662  24.0153 15.27579122123385
2024-085C               
1 59679U 24085C   26193.87438720  .00006635  00000+0  20014-3 0  9994
2 59679  97.3290 269.5620 0024715 309.4016  50.5038 15.34326882121580
2024-085D               
1 59680U 24085D   26193.85947449  .00008054  00000+0  22870-3 0  9996
2 59680  97.3240 269.5038 0011693 327.4937  32.5586 15.36392491121605
STARLINK-32108          
1 59682U 24086A   26193.66672812  .00000893  00000+0  41991-4 0  9996
2 59682  43.0050  77.7011 0001370 264.4834  95.5861 15.27576337123173
STARLINK-32080          
1 59683U 24086B   26193.03472040 -.00002451  00000+0 -79534-4 0  9997
2 59683  42.9945  81.5722 0002050  15.0641 345.0271 15.27587883123096
STARLINK-32091          
1 59684U 24086C   26193.08598905 -.00000007  00000+0  92407-5 0  9991
2 59684  42.9992  69.8768 0000524 275.2861  84.7930 15.27572092123237
STARLINK-32085          
1 59685U 24086D   26193.06589961 -.00000533  00000+0 -98624-5 0  9994
2 59685  43.0067  77.5056 0000926 350.5133   9.5702 15.27573048123137
STARLINK-32100          
1 59686U 24086E   26193.02201578 -.00000076  00000+0  67536-5 0  9995
2 59686  43.0041  59.6312 0001240 265.2610  94.8100 15.27578242123330
STARLINK-32089          
1 59687U 24086F   26193.70433081 -.00000557  00000+0 -10708-4 0  9990
2 59687  43.0042  73.7015 0001480 271.5245  88.5437 15.27578180123232
STARLINK-32103          
1 59688U 24086G   26192.98525177  .00001560  00000+0  66210-4 0  9990
2 59688  43.0037  67.3798 0001562 259.6397 100.4279 15.27574561123248
STARLINK-32105          
1 59689U 24086H   26193.56713294  .00000444  00000+0  25660-4 0  9999
2 59689  43.0018  74.3879 0001727 244.9053 115.1620 15.27577410123211
STARLINK-32106          
1 59690U 24086J   26193.66289946  .00000433  00000+0  25247-4 0  9993
2 59690  42.9995  66.4609 0000835 275.2804  84.7952 15.27578175123317
STARLINK-32090          
1 59691U 24086K   26193.09624579  .00002344  00000+0  94690-4 0  9997
2 59691  43.0050  81.1864 0001201 282.7648  77.3070 15.27570811123099
STARLINK-32088          
1 59693U 24086M   26193.08212696  .00000461  00000+0  26299-4 0  9999
2 59693  43.0019  69.8422 0002072 246.3883 113.6752 15.27573523123222
STARLINK-32107          
1 59694U 24086N   26193.73774913 -.00001738  00000+0 -53671-4 0  9991
2 59694  43.0032  73.9475 0001556 268.8276  91.2398 15.27570545123232
STARLINK-32104          
1 59695U 24086P   26193.01767924  .00000365  00000+0  22803-4 0  9993
2 59695  43.0017  74.4692 0001241 270.4069  89.6641 15.27577992123160
STARLINK-32094          
1 59696U 24086Q   26193.02235248  .00005561  00000+0  21148-3 0  9997
2 59696  42.9991  78.0408 0001744 251.8339 108.2323 15.27577551123128
STARLINK-32099          
1 59697U 24086R   26193.11328806  .00002572  00000+0  10297-3 0  9993
2 59697  43.0010  77.0049 0001338 259.8383 100.2317 15.27579899123143
STARLINK-32096          
1 59698U 24086S   26193.84666709  .00012656  00000+0  46945-3 0  9994
2 59698  43.0039  73.0457 0000899 255.8403 104.2349 15.27523902123259
STARLINK-32102          
1 59699U 24086T   26193.70818980  .00012429  00000+0  46019-3 0  9990
2 59699  42.9998  73.7300 0000643 268.8123  91.2655 15.27595979123232
STARLINK-32092          
1 59700U 24086U   26193.66079264 -.00000338  00000+0 -27663-5 0  9996
2 59700  43.0044  74.2302 0001175 276.3004  83.7714 15.27577289123225
STARLINK-32093          
1 59701U 24086V   26193.72361196 -.00000047  00000+0  77947-5 0  9998
2 59701  43.0028  73.8421 0000926 266.0994  93.9752 15.27573570123237
STARLINK-32087          
1 59702U 24086W   26193.71204079 -.00000679  00000+0 -15151-4 0  9994
2 59702  43.0076  73.7529 0001934 267.0429  93.0202 15.27576883123234
