OBJECT_NAME,OBJECT_ID,EPOCH,MEAN_MOTION,ECCENTRICITY,INCLINATION,RA_OF_ASC_NODE,ARG_OF_PERICENTER,MEAN_ANOMALY,EPHEMERIS_TYPE,CLASSIFICATION_TYPE,NORAD_CAT_ID,ELEMENT_SET_NO,REV_AT_EPOCH,BSTAR,MEAN_MOTION_DOT,MEAN_MOTION_DDOT
STARLINK-31917,2024-084R,2026-07-12T15:32:38.699232,15.27576248,.0001401,43.0023,56.1061,254.6064,105.4633,0,U,59669,999,12348,.15402E-4,.162E-5,0
STARLINK-31860,2024-084S,2026-07-12T15:29:38.829984,15.27500099,.0001706,43.0055,52.6401,250.6397,109.4270,0,U,59670,999,12350,.48013E-3,.12941E-3,0
STARLINK-31854,2024-084T,2026-07-12T20:43:04.389600,15.27575869,.0001132,43.0034,21.8545,272.9417,87.1305,0,U,59671,999,12387,.53685E-4,.1215E-4,0
STARLINK-31842,2024-084U,2026-07-12T15:40:44.679360,15.27576895,.0001365,43.0059,52.6977,273.7066,86.3630,0,U,59672,999,12352,.49649E-5,-.126E-5,0
STARLINK-31871,2024-084V,2026-07-12T02:48:16.978752,15.27583574,.00017673,43.0024,59.0050,254.1744,105.8913,0,U,59673,999,12340,.95486915E-4,.2366E-4,0
STARLINK-31875,2024-084W,2026-07-11T23:36:58.980672,15.27569387,.0000857,42.9994,56.2792,251.7420,108.3338,0,U,59674,999,12342,.37052062E-4,.758E-5,0
STARLINK-31877,2024-084X,2026-07-12T15:43:43.548096,15.27584999,.0001573,43.0027,56.1711,254.1305,105.9373,0,U,59675,999,12348,-.91231E-4,-.2772E-4,0
STARLINK-31884,2024-084Y,2026-07-11T23:45:32.902560,15.27579122,.00007766,42.9993,59.7996,336.0662,24.0153,0,U,59676,999,12338,.28845788E-3,.7684E-4,0
2024-085C,2024-085C,2026-07-12T20:59:07.054080,15.34326882,.0024715,97.3290,269.5620,309.4016,50.5038,0,U,59679,999,12158,.20014E-3,.6635E-4,0
2024-085D,2024-085D,2026-07-12T20:37:38.595936,15.36392491,.0011693,97.3240,269.5038,327.4937,32.5586,0,U,59680,999,12160,.2287E-3,.8054E-4,0
STARLINK-32108,2024-086A,2026-07-12T16:00:05.309568,15.27576337,.000137,43.0050,77.7011,264.4834,95.5861,0,U,59682,999,12317,.41991E-4,.893E-5,0
STARLINK-32080,2024-086B,2026-07-12T00:49:59.842560,15.27587883,.00020508,42.9945,81.5722,15.0641,345.0271,0,U,59683,999,12309,-.7953407E-4,-.2451E-4,0
STARLINK-32091,2024-086C,2026-07-12T02:03:49.453920,15.27572092,.00005241,42.9992,69.8768,275.2861,84.7930,0,U,59684,999,12323,.9240735E-5,-.7E-7,0
STARLINK-32085,2024-086D,2026-07-12T01:34:53.726304,15.27573048,.00009265,43.0067,77.5056,350.5133,9.5702,0,U,59685,999,12313,-.9862414E-5,-.533E-5,0
STARLINK-32100,2024-086E,2026-07-12T00:31:42.163392,15.27578242,.000124,43.0041,59.6312,265.2610,94.8100,0,U,59686,999,12333,.6753574E-5,-.76E-6,0
STARLINK-32089,2024-086F,2026-07-12T16:54:14.181984,15.27578180,.000148,43.0042,73.7015,271.5245,88.5437,0,U,59687,999,12323,-.10708E-4,-.557E-5,0
STARLINK-32103,2024-086G,2026-07-11T23:38:45.752928,15.27574561,.00015624,43.0037,67.3798,259.6397,100.4279,0,U,59688,999,12324,.66210419E-4,.156E-4,0
STARLINK-32105,2024-086H,2026-07-12T13:36:40.286016,15.27577410,.0001727,43.0018,74.3879,244.9053,115.1620,0,U,59689,999,12321,.2566E-4,.444E-5,0
STARLINK-32106,2024-086J,2026-07-12T15:54:34.513344,15.27578175,.0000835,42.9995,66.4609,275.2804,84.7952,0,U,59690,999,12331,.25247E-4,.433E-5,0
STARLINK-32090,2024-086K,2026-07-12T02:18:35.636256,15.27570811,.00012012,43.0050,81.1864,282.7648,77.3070,0,U,59691,999,12309,.94690218E-4,.2344E-4,0
STARLINK-32088,2024-086M,2026-07-12T01:58:15.769344,15.27573523,.00020728,43.0019,69.8422,246.3883,113.6752,0,U,59693,999,12322,.26298929E-4,.461E-5,0
STARLINK-32107,2024-086N,2026-07-12T17:42:21.524832,15.27570545,.0001556,43.0032,73.9475,268.8276,91.2398,0,U,59694,999,12323,-.53671E-4,-.1738E-4,0
STARLINK-32104,2024-086P,2026-07-12T00:25:27.486336,15.27577992,.00012415,43.0017,74.4692,270.4069,89.6641,0,U,59695,999,12316,.22802901E-4,.365E-5,0
STARLINK-32094,2024-086Q,2026-07-12T00:32:11.254272,15.27577551,.0001744,42.9991,78.0408,251.8339,108.2323,0,U,59696,999,12312,.21147547E-3,.5561E-4,0
STARLINK-32099,2024-086R,2026-07-12T02:43:08.088384,15.27579899,.00013382,43.0010,77.0049,259.8383,100.2317,0,U,59697,999,12314,.10297306E-3,.2572E-4,0
STARLINK-32096,2024-086S,2026-07-12T20:19:12.036576,15.27523902,.0000899,43.0039,73.0457,255.8403,104.2349,0,U,59698,999,12325,.46945E-3,.12656E-3,0
STARLINK-32102,2024-086T,2026-07-12T16:59:47.598720,15.27595979,.0000643,42.9998,73.7300,268.8123,91.2655,0,U,59699,999,12323,.46019E-3,.12429E-3,0
STARLINK-32092,2024-086U,2026-07-12T15:51:32.484096,15.27577289,.0001175,43.0044,74.2302,276.3004,83.7714,0,U,59700,999,12322,-.27663E-5,-.338E-5,0
STARLINK-32093,2024-086V,2026-07-12T17:22:00.073344,15.27573570,.0000926,43.0028,73.8421,266.0994,93.9752,0,U,59701,999,12323,.77947E-5,-.47E-6,0
STARLINK-32087,2024-086W,2026-07-12T17:05:20.324256,15.27576883,.0001934,43.0076,73.7529,267.0429,93.0202,0,U,59702,999,12323,-.15151E-4,-.679E-5,0
